0 SL-16 DEB
1 25254U 93059H   13283.04874162 -.00000003  00000-0  21180-4 0   253
2 25254 070.9873 151.9992 0017981 244.8591 232.3082 14.20555025839345
0 SL-16 DEB
1 25254U 93059H   13286.06838262  .00000185  00000-0  10857-3 0   279
2 25254 070.9868 145.5958 0017825 240.6608 194.3234 14.20554053839773
0 SL-16 DEB
1 25254U 93059H   13287.47611390  .00000322  00000-0  17203-3 0   282
2 25254 070.9865 142.6105 0017769 238.6702 193.2942 14.20553607839971
0 SL-16 DEB
1 25254U 93059H   13288.74350765  .00000444  00000-0  22878-3 0   299
2 25254 070.9865 139.9228 0017731 236.9304 194.5417 14.20554437840159
0 SL-16 DEB
1 25254U 93059H   13289.80572550  .00000398  00000-0  20736-3 0   306
2 25254 070.9865 137.6701 0017691 235.5020 226.5226 14.20555345840305
0 SL-16 DEB
1 25254U 93059H   13291.01454102  .00000325  00000-0  17336-3 0   317
2 25254 070.9866 135.1065 0017617 233.8003 288.2532 14.20556837840472
0 SL-16 DEB
1 25254U 93059H   13292.83321223  .00000215  00000-0  12240-3 0   323
2 25254 070.9867 131.2495 0017538 231.2784 228.6805 14.20559320840737
0 SL-16 DEB
1 25254U 93059H   13293.96289486  .00000120  00000-0  78300-4 0   338
2 25254 070.9869 128.8537 0017483 229.6739 245.7622 14.20560750840891
0 SL-16 DEB
1 25254U 93059H   13296.21597517  .00000103  00000-0  70209-4 0   348
2 25254 070.9868 124.0754 0017370 226.6407 247.6379 14.20562027841219
